[{"OBJECT_NAME":"IRIDIUM 158","OBJECT_ID":"2018-061C","EPOCH":"2026-03-09T15:12:46.379232","MEAN_MOTION":14.34217236,"ECCENTRICITY":0.0001997,"INCLINATION":86.3916,"RA_OF_ASC_NODE":98.4013,"ARG_OF_PERICENTER":90.655,"MEAN_ANOMALY":269.4875,"EPHEMERIS_TYPE":0,"CLASSIFICATION_TYPE":"U","NORAD_CAT_ID":43571,"ELEMENT_SET_NO":999,"REV_AT_EPOCH":39909,"BSTAR":-1.4507e-5,"MEAN_MOTION_DOT":-2.1e-7,"MEAN_MOTION_DDOT":0},{"OBJECT_NAME":"CZ-6A DEB","OBJECT_ID":"2024-140RJ","EPOCH":"2026-03-09T13:07:36.270912","MEAN_MOTION":14.44919722,"ECCENTRICITY":0.00710485,"INCLINATION":88.9215,"RA_OF_ASC_NODE":278.0584,"ARG_OF_PERICENTER":230.5723,"MEAN_ANOMALY":128.9179,"EPHEMERIS_TYPE":0,"CLASSIFICATION_TYPE":"U","NORAD_CAT_ID":61164,"ELEMENT_SET_NO":999,"REV_AT_EPOCH":8154,"BSTAR":0.00020345028,"MEAN_MOTION_DOT":7.46e-6,"MEAN_MOTION_DDOT":0}]
